{
  "norad_id": 67045,
  "name": "STARLINK-35891",
  "history": [
    {
      "epoch": "2026-03-28T21:34:37.565760Z",
      "apogee_km": 483.9969948872649,
      "perigee_km": 481.95649965882603,
      "latitude_deg": -4.612374527074446e-05,
      "longitude_deg": 139.90745081312264,
      "height_km": 482.82604076665734,
      "semi_major_axis_km": 6861.113747273045,
      "eccentricity": 0.0001487,
      "inclination_deg": 43.0014,
      "raan_deg": 289.8769,
      "arg_perigee_deg": 265.9321,
      "mean_anomaly_deg": 94.136,
      "mean_motion_rev_day": 15.27604162
    },
    {
      "epoch": "2026-03-28T21:34:37.566624Z",
      "apogee_km": 483.9973379429521,
      "perigee_km": 481.95615660313797,
      "latitude_deg": -4.220293622694447e-05,
      "longitude_deg": 139.90755138438175,
      "height_km": 482.82606509902126,
      "semi_major_axis_km": 6861.113747273045,
      "eccentricity": 0.00014875,
      "inclination_deg": 43.0014,
      "raan_deg": 289.877,
      "arg_perigee_deg": 265.9321,
      "mean_anomaly_deg": 94.136,
      "mean_motion_rev_day": 15.27604162
    },
    {
      "epoch": "2026-03-29T22:41:07.336320Z",
      "apogee_km": 484.2997548168287,
      "perigee_km": 481.5731642240153,
      "latitude_deg": -1.3614732598504706e-05,
      "longitude_deg": 116.3464819292713,
      "height_km": 482.77853769516645,
      "semi_major_axis_km": 6861.073459520421,
      "eccentricity": 0.0001987,
      "inclination_deg": 43.0008,
      "raan_deg": 283.9711,
      "arg_perigee_deg": 267.274,
      "mean_anomaly_deg": 92.7884,
      "mean_motion_rev_day": 15.27617617
    }
  ]
}